{"type":"FeatureCollection","features":[{"type":"Feature","properties":{"code":"52062","label":[6.08774,50.77803]},"geometry":{"type":"Polygon","coordinates":[[[6.08046,50.77247],[6.08045,50.77266],[6.07931,50.77294],[6.07848,50.77281],[6.07783,50.77301],[6.07803,50.77331],[6.08007,50.77423],[6.08102,50.77485],[6.08077,50.775],[6.08126,50.77526],[6.08143,50.7751],[6.08216,50.77542],[6.08235,50.77559],[6.08202,50.7759],[6.08015,50.77518],[6.0796,50.77568],[6.07922,50.77554],[6.07909,50.77567],[6.07885,50.7756],[6.07856,50.77585],[6.07835,50.77574],[6.07732,50.77607],[6.07611,50.77583],[6.07606,50.77565],[6.07534,50.77547],[6.07516,50.77588],[6.07525,50.77725],[6.07464,50.77823],[6.0755,50.78034],[6.07602,50.78102],[6.07612,50.78205],[6.07671,50.78202],[6.077,50.78169],[6.07957,50.78269],[6.07969,50.78245],[6.08036,50.78281],[6.08109,50.78297],[6.08144,50.78286],[6.08173,50.78306],[6.08333,50.78276],[6.08512,50.78355],[6.08738,50.7825],[6.0877,50.78261],[6.08848,50.78253],[6.08897,50.78215],[6.09122,50.78314],[6.09414,50.78172],[6.09513,50.77869],[6.09508,50.77826],[6.09599,50.77811],[6.09634,50.77713],[6.09556,50.77698],[6.09569,50.7768],[6.09529,50.77673],[6.09536,50.77654],[6.09574,50.77662],[6.09595,50.77622],[6.09633,50.77628],[6.09664,50.77515],[6.09709,50.77515],[6.09709,50.77492],[6.09651,50.77483],[6.09598,50.7742],[6.09535,50.7742],[6.09509,50.77298],[6.09565,50.77273],[6.09541,50.77274],[6.09512,50.77124],[6.09539,50.77113],[6.09515,50.77106],[6.09483,50.77051],[6.09477,50.77008],[6.09494,50.77006],[6.09458,50.76968],[6.09485,50.76956],[6.09461,50.76932],[6.09325,50.76917],[6.0929,50.7689],[6.09238,50.76884],[6.09232,50.76907],[6.09252,50.76911],[6.09292,50.76972],[6.09207,50.77048],[6.09192,50.77054],[6.09127,50.77011],[6.09051,50.77041],[6.09079,50.77071],[6.09056,50.77084],[6.09077,50.77111],[6.09012,50.77096],[6.0896,50.77056],[6.08908,50.77072],[6.08947,50.77133],[6.08905,50.77154],[6.08857,50.77105],[6.0884,50.77111],[6.08888,50.77161],[6.08828,50.77175],[6.08651,50.77178],[6.0863,50.77142],[6.08647,50.77136],[6.08617,50.77106],[6.08568,50.77115],[6.08531,50.77159],[6.08556,50.77181],[6.08248,50.77226],[6.08233,50.77195],[6.08279,50.77136],[6.08188,50.77124],[6.08081,50.77218],[6.08063,50.77207],[6.08046,50.77247]]]}},{"type":"Feature","properties":{"code":"52064","label":[6.07958,50.76666]},"geometry":{"type":"Polygon","coordinates":[[[6.07434,50.77823],[6.07471,50.77914],[6.07435,50.77922],[6.07466,50.77989],[6.07494,50.77983],[6.07558,50.78112],[6.07602,50.78102],[6.0755,50.78034],[6.07464,50.77823],[6.07525,50.77725],[6.07516,50.77588],[6.07534,50.77547],[6.07606,50.77565],[6.07611,50.77583],[6.07732,50.77607],[6.07835,50.77574],[6.07856,50.77585],[6.07885,50.7756],[6.07909,50.77567],[6.07922,50.77554],[6.0796,50.77568],[6.08015,50.77518],[6.08202,50.7759],[6.08235,50.77559],[6.08216,50.77542],[6.08143,50.7751],[6.08126,50.77526],[6.08077,50.775],[6.08102,50.77485],[6.08007,50.77423],[6.07803,50.77331],[6.07783,50.77301],[6.07848,50.77281],[6.07931,50.77294],[6.08045,50.77266],[6.08063,50.77207],[6.08081,50.77218],[6.08188,50.77124],[6.08279,50.77136],[6.08233,50.77195],[6.08248,50.77226],[6.08556,50.77181],[6.08531,50.77159],[6.08568,50.77115],[6.08617,50.77106],[6.08647,50.77136],[6.0863,50.77142],[6.08651,50.77178],[6.08828,50.77175],[6.08888,50.77161],[6.0884,50.77111],[6.08857,50.77105],[6.08905,50.77154],[6.08947,50.77133],[6.08908,50.77072],[6.0896,50.77056],[6.09012,50.77096],[6.09077,50.77111],[6.09056,50.77084],[6.09079,50.77071],[6.09051,50.77041],[6.09127,50.77011],[6.09192,50.77054],[6.09207,50.77048],[6.09292,50.76972],[6.09252,50.76911],[6.09232,50.76907],[6.09238,50.76884],[6.0929,50.7689],[6.09325,50.76917],[6.09461,50.76932],[6.09485,50.76956],[6.09518,50.76941],[6.0949,50.76907],[6.09444,50.76746],[6.09276,50.76766],[6.09222,50.76759],[6.09066,50.76729],[6.08931,50.76674],[6.08995,50.76616],[6.0892,50.76578],[6.08894,50.76556],[6.08908,50.76542],[6.08875,50.76529],[6.08766,50.76538],[6.08645,50.7643],[6.08616,50.76382],[6.08637,50.76365],[6.08626,50.76329],[6.08737,50.763],[6.08726,50.76266],[6.0875,50.76255],[6.08734,50.76244],[6.08502,50.76274],[6.08013,50.75799],[6.07952,50.75824],[6.07889,50.75818],[6.07712,50.7584],[6.07673,50.75945],[6.07616,50.76003],[6.07584,50.75994],[6.07535,50.76071],[6.07444,50.76046],[6.07425,50.76068],[6.07511,50.76105],[6.07488,50.7614],[6.07368,50.76192],[6.07218,50.76365],[6.07186,50.7638],[6.07154,50.76479],[6.07179,50.76499],[6.07172,50.76548],[6.07197,50.7658],[6.07148,50.76584],[6.06585,50.76085],[6.06522,50.76098],[6.06537,50.76111],[6.0652,50.76123],[6.06651,50.76195],[6.06642,50.76226],[6.06815,50.76339],[6.06856,50.76332],[6.06878,50.76351],[6.06841,50.76369],[6.06867,50.76395],[6.06909,50.76375],[6.06977,50.76431],[6.06827,50.7645],[6.06766,50.76484],[6.06799,50.76501],[6.0695,50.7647],[6.07019,50.76517],[6.06995,50.7653],[6.07033,50.76573],[6.06959,50.76633],[6.06999,50.7668],[6.06956,50.76702],[6.06727,50.76534],[6.06459,50.76497],[6.06342,50.76458],[6.06114,50.76557],[6.06146,50.76653],[6.06308,50.76648],[6.06347,50.76675],[6.06419,50.76678],[6.06472,50.76706],[6.06419,50.76785],[6.0656,50.76856],[6.0664,50.76917],[6.06728,50.76864],[6.0674,50.76873],[6.06767,50.76858],[6.06797,50.76895],[6.06734,50.76914],[6.06809,50.77009],[6.06848,50.76998],[6.06862,50.77016],[6.06899,50.77009],[6.06916,50.77032],[6.06938,50.7703],[6.06915,50.77001],[6.06945,50.76981],[6.06972,50.77008],[6.0704,50.76998],[6.07101,50.77011],[6.07014,50.77023],[6.07032,50.77046],[6.06941,50.77105],[6.06999,50.77264],[6.07079,50.77287],[6.07082,50.77307],[6.07107,50.7731],[6.07113,50.77295],[6.072,50.77324],[6.07183,50.77405],[6.07153,50.77404],[6.07123,50.7748],[6.07204,50.77494],[6.07205,50.77523],[6.07093,50.77571],[6.0716,50.77642],[6.07211,50.77637],[6.07283,50.77669],[6.07434,50.77823]]]}},{"type":"Feature","properties":{"code":"52066","label":[6.10391,50.76121]},"geometry":{"type":"Polygon","coordinates":[[[6.10625,50.77479],[6.10949,50.77415],[6.11084,50.77339],[6.11158,50.77344],[6.11189,50.77331],[6.11295,50.77246],[6.11362,50.77217],[6.11403,50.77222],[6.11448,50.77188],[6.115,50.77175],[6.11531,50.77187],[6.11558,50.77169],[6.11557,50.77138],[6.11759,50.77047],[6.11714,50.77006],[6.11965,50.76885],[6.1199,50.76895],[6.12105,50.7682],[6.12206,50.76784],[6.12223,50.76707],[6.12666,50.76572],[6.12583,50.76441],[6.12537,50.76432],[6.12535,50.76406],[6.12025,50.76205],[6.11872,50.76129],[6.12152,50.7597],[6.12187,50.75914],[6.123,50.75871],[6.12278,50.75741],[6.1229,50.7564],[6.12376,50.75527],[6.12427,50.75498],[6.12488,50.75486],[6.12483,50.75456],[6.12492,50.75472],[6.12507,50.75464],[6.12517,50.75416],[6.12483,50.75411],[6.12551,50.75199],[6.11885,50.74566],[6.12514,50.7425],[6.12428,50.7422],[6.12146,50.74332],[6.11803,50.74404],[6.11565,50.7433],[6.11417,50.74487],[6.11154,50.74444],[6.10988,50.74491],[6.1085,50.7464],[6.10549,50.74715],[6.10353,50.74786],[6.10157,50.75012],[6.09935,50.75149],[6.0998,50.75173],[6.09964,50.7521],[6.09987,50.75221],[6.09966,50.75238],[6.09736,50.75184],[6.09509,50.75162],[6.09499,50.75233],[6.09331,50.75211],[6.09337,50.75244],[6.0925,50.75252],[6.09135,50.75075],[6.0903,50.75053],[6.08866,50.74968],[6.0874,50.74967],[6.08867,50.74784],[6.08783,50.74763],[6.08834,50.74623],[6.08777,50.74619],[6.08747,50.74601],[6.08718,50.74616],[6.08677,50.74711],[6.08599,50.74792],[6.08575,50.74933],[6.08616,50.7495],[6.08601,50.75009],[6.08448,50.7503],[6.08422,50.74992],[6.08243,50.7488],[6.07909,50.74428],[6.07494,50.74612],[6.07481,50.74697],[6.07704,50.74815],[6.0763,50.74922],[6.07572,50.74915],[6.07457,50.74996],[6.07206,50.75066],[6.0732,50.75121],[6.07956,50.75757],[6.07887,50.75762],[6.07889,50.75818],[6.07952,50.75824],[6.08013,50.75799],[6.08502,50.76274],[6.08734,50.76244],[6.0875,50.76255],[6.08726,50.76266],[6.08737,50.763],[6.08626,50.76329],[6.08637,50.76365],[6.08616,50.76382],[6.08645,50.7643],[6.08766,50.76538],[6.08875,50.76529],[6.08908,50.76542],[6.08894,50.76556],[6.0892,50.76578],[6.08995,50.76616],[6.08931,50.76674],[6.09066,50.76729],[6.09222,50.76759],[6.09276,50.76766],[6.09444,50.76746],[6.0949,50.76907],[6.09518,50.76941],[6.09715,50.76848],[6.09749,50.76874],[6.09784,50.76866],[6.09805,50.76885],[6.09923,50.76905],[6.0994,50.76926],[6.10062,50.76939],[6.10056,50.76975],[6.10169,50.7701],[6.10346,50.77002],[6.10359,50.77015],[6.10467,50.77031],[6.10478,50.77004],[6.10521,50.7701],[6.10512,50.77035],[6.10645,50.77051],[6.10605,50.77103],[6.10695,50.7713],[6.10657,50.77183],[6.10723,50.77192],[6.10679,50.77212],[6.10678,50.77229],[6.10617,50.77238],[6.1064,50.77247],[6.10596,50.77392],[6.10648,50.77416],[6.10625,50.77479]]]}},{"type":"Feature","properties":{"code":"52068","label":[6.12516,50.77995]},"geometry":{"type":"Polygon","coordinates":[[[6.10625,50.77479],[6.10322,50.77685],[6.10331,50.77703],[6.10303,50.77709],[6.10281,50.77765],[6.1031,50.77781],[6.10237,50.77874],[6.1016,50.7785],[6.10137,50.77869],[6.10141,50.779],[6.10085,50.77944],[6.10094,50.78011],[6.10117,50.78023],[6.10201,50.78024],[6.10314,50.78083],[6.10284,50.7811],[6.10309,50.78123],[6.10324,50.7811],[6.10379,50.78141],[6.10514,50.78173],[6.10527,50.78222],[6.1057,50.78244],[6.10632,50.78244],[6.10772,50.78314],[6.10818,50.78293],[6.1088,50.7834],[6.10853,50.78382],[6.10899,50.78443],[6.10935,50.78417],[6.11079,50.78492],[6.11134,50.78449],[6.11233,50.78502],[6.1122,50.78512],[6.11259,50.78533],[6.11209,50.78574],[6.1126,50.78607],[6.11228,50.78625],[6.11264,50.7865],[6.11628,50.78653],[6.11739,50.78743],[6.1178,50.78728],[6.1204,50.78959],[6.12134,50.79152],[6.12128,50.79349],[6.125,50.78982],[6.12588,50.78929],[6.12726,50.78902],[6.13141,50.78866],[6.1328,50.78988],[6.13923,50.79192],[6.14427,50.79085],[6.14165,50.78768],[6.14305,50.7876],[6.1439,50.78738],[6.14462,50.78703],[6.14546,50.78619],[6.1457,50.78498],[6.14526,50.78295],[6.14471,50.78259],[6.14466,50.78232],[6.14434,50.78241],[6.14384,50.78221],[6.14401,50.78206],[6.14333,50.78203],[6.14364,50.78158],[6.14267,50.78101],[6.14218,50.78035],[6.1417,50.78023],[6.14082,50.7794],[6.14057,50.77891],[6.14102,50.77878],[6.14121,50.77897],[6.14374,50.77819],[6.14366,50.77802],[6.14273,50.77825],[6.14253,50.77798],[6.14172,50.77759],[6.14211,50.77743],[6.14175,50.7773],[6.14349,50.77587],[6.14404,50.77466],[6.14349,50.77356],[6.14293,50.77317],[6.1389,50.77113],[6.13722,50.77049],[6.13277,50.76992],[6.13091,50.76919],[6.12925,50.76823],[6.12815,50.76876],[6.12705,50.76798],[6.12807,50.76754],[6.12684,50.76641],[6.12509,50.76722],[6.12549,50.76758],[6.12512,50.76775],[6.12471,50.76739],[6.12398,50.76772],[6.12444,50.76815],[6.12385,50.76853],[6.12329,50.76806],[6.12197,50.76858],[6.12217,50.76887],[6.12288,50.76895],[6.1235,50.76945],[6.1222,50.77027],[6.12155,50.76982],[6.12031,50.7706],[6.11911,50.76995],[6.11866,50.77015],[6.11948,50.77078],[6.11896,50.77112],[6.11759,50.77047],[6.11557,50.77138],[6.11558,50.77169],[6.11531,50.77187],[6.115,50.77175],[6.11448,50.77188],[6.11403,50.77222],[6.11362,50.77217],[6.11295,50.77246],[6.11158,50.77344],[6.11104,50.77332],[6.10949,50.77415],[6.10625,50.77479]]]}},{"type":"Feature","properties":{"code":"52070","label":[6.09846,50.79271]},"geometry":{"type":"Polygon","coordinates":[[[6.0823,50.78301],[6.08249,50.78323],[6.08282,50.78307],[6.08299,50.78324],[6.08268,50.78338],[6.08327,50.78408],[6.08023,50.78495],[6.07867,50.78559],[6.07272,50.78901],[6.07182,50.78893],[6.07141,50.78866],[6.07043,50.79009],[6.07072,50.79083],[6.07167,50.79131],[6.07236,50.7922],[6.07527,50.79392],[6.07596,50.79644],[6.0758,50.79832],[6.07641,50.79946],[6.07733,50.79909],[6.07828,50.79976],[6.07612,50.80362],[6.07627,50.80505],[6.0761,50.80717],[6.07568,50.80772],[6.08218,50.80913],[6.08253,50.80906],[6.08421,50.80939],[6.08603,50.81038],[6.08697,50.81055],[6.08843,50.81065],[6.09225,50.81053],[6.09314,50.81072],[6.09449,50.81061],[6.09693,50.81097],[6.10311,50.81273],[6.104,50.8126],[6.10399,50.81288],[6.10469,50.81286],[6.10481,50.81321],[6.10491,50.81252],[6.10591,50.8102],[6.1053,50.80995],[6.10548,50.80964],[6.10494,50.80895],[6.10535,50.80814],[6.10451,50.80744],[6.10334,50.80714],[6.10158,50.80593],[6.0996,50.80538],[6.09896,50.80481],[6.09899,50.80455],[6.09926,50.80445],[6.10284,50.80478],[6.107,50.8049],[6.10868,50.80569],[6.10947,50.80575],[6.11093,50.80546],[6.11158,50.80587],[6.11053,50.80455],[6.11104,50.80453],[6.10955,50.80243],[6.11085,50.80198],[6.11114,50.80217],[6.11282,50.80198],[6.11454,50.80196],[6.11522,50.80145],[6.11596,50.80048],[6.11582,50.79862],[6.11842,50.79729],[6.12143,50.7962],[6.12191,50.79581],[6.12218,50.79485],[6.12165,50.79431],[6.12128,50.79349],[6.12134,50.79152],[6.1204,50.78959],[6.1178,50.78728],[6.11739,50.78743],[6.11628,50.78653],[6.11264,50.7865],[6.11228,50.78625],[6.1126,50.78607],[6.11209,50.78574],[6.11259,50.78533],[6.1122,50.78512],[6.11233,50.78502],[6.11134,50.78449],[6.11079,50.78492],[6.10935,50.78417],[6.10899,50.78443],[6.10853,50.78382],[6.1088,50.7834],[6.10818,50.78293],[6.10772,50.78314],[6.10632,50.78244],[6.1057,50.78244],[6.10527,50.78222],[6.10514,50.78173],[6.10379,50.78141],[6.10324,50.7811],[6.10309,50.78123],[6.10284,50.7811],[6.10314,50.78083],[6.10201,50.78024],[6.10117,50.78023],[6.10094,50.78011],[6.10085,50.77944],[6.10141,50.779],[6.10137,50.77869],[6.1016,50.7785],[6.10237,50.77874],[6.1031,50.77781],[6.10281,50.77765],[6.10303,50.77709],[6.10331,50.77703],[6.10322,50.77685],[6.10625,50.77479],[6.10648,50.77416],[6.10596,50.77392],[6.1064,50.77247],[6.10617,50.77238],[6.10678,50.77229],[6.10679,50.77212],[6.10723,50.77192],[6.10657,50.77183],[6.10695,50.7713],[6.10605,50.77103],[6.10645,50.77051],[6.10512,50.77035],[6.10521,50.7701],[6.10478,50.77004],[6.10467,50.77031],[6.10359,50.77015],[6.10346,50.77002],[6.10169,50.7701],[6.10056,50.76975],[6.10062,50.76939],[6.0994,50.76926],[6.09923,50.76905],[6.09805,50.76885],[6.09784,50.76866],[6.09749,50.76874],[6.09715,50.76848],[6.09458,50.76968],[6.09494,50.77006],[6.09477,50.77008],[6.09483,50.77051],[6.09515,50.77106],[6.09539,50.77113],[6.09512,50.77124],[6.09541,50.77274],[6.09565,50.77273],[6.09509,50.77298],[6.09535,50.7742],[6.09598,50.7742],[6.09651,50.77483],[6.09709,50.77492],[6.09709,50.77515],[6.09664,50.77515],[6.09633,50.77628],[6.09595,50.77622],[6.09574,50.77662],[6.09536,50.77654],[6.09529,50.77673],[6.09569,50.7768],[6.09556,50.77698],[6.09634,50.77713],[6.09599,50.77811],[6.09508,50.77826],[6.09513,50.77869],[6.09414,50.78172],[6.09122,50.78314],[6.08897,50.78215],[6.08848,50.78253],[6.0877,50.78261],[6.08738,50.7825],[6.08512,50.78355],[6.08333,50.78276],[6.08247,50.78286],[6.0823,50.78301]]]}},{"type":"Feature","properties":{"code":"52072","label":[6.044,50.8309]},"geometry":{"type":"Polygon","coordinates":[[[6.07434,50.77823],[6.07144,50.77994],[6.06134,50.78357],[6.05825,50.78497],[6.05497,50.78778],[6.05425,50.7886],[6.05346,50.79005],[6.05337,50.79073],[6.0538,50.79238],[6.05756,50.79305],[6.06008,50.79163],[6.06632,50.79239],[6.06614,50.79399],[6.06546,50.79459],[6.06402,50.79512],[6.06414,50.79521],[6.06373,50.79563],[6.06319,50.79549],[6.06295,50.79585],[6.06333,50.7959],[6.06306,50.79641],[6.062,50.79633],[6.06158,50.79682],[6.06253,50.79699],[6.0624,50.79723],[6.06181,50.79735],[6.06189,50.79752],[6.06169,50.79756],[6.06138,50.79736],[6.06115,50.7974],[6.06126,50.79759],[6.06092,50.79765],[6.06047,50.79733],[6.05626,50.79798],[6.05622,50.79836],[6.05397,50.79875],[6.05372,50.79899],[6.05257,50.79851],[6.05218,50.79859],[6.0518,50.79847],[6.0483,50.79939],[6.04815,50.79969],[6.0493,50.80065],[6.04769,50.80185],[6.04734,50.803],[6.04726,50.8052],[6.04548,50.80745],[6.03899,50.8085],[6.03353,50.81088],[6.02938,50.81343],[6.02502,50.81411],[6.02353,50.81465],[6.02449,50.81592],[6.0221,50.81681],[6.02325,50.81797],[6.02377,50.81826],[6.02372,50.8184],[6.02564,50.81918],[6.02632,50.82006],[6.02623,50.82037],[6.02514,50.82145],[6.0247,50.8216],[6.02399,50.82511],[6.02271,50.82662],[6.02526,50.82775],[6.01877,50.82966],[6.01631,50.83389],[6.01843,50.83733],[6.01594,50.8388],[6.01892,50.84627],[6.02223,50.84642],[6.02561,50.84775],[6.02606,50.8472],[6.02771,50.84757],[6.03173,50.84931],[6.03163,50.84941],[6.03357,50.85038],[6.03371,50.85027],[6.03459,50.85051],[6.0361,50.8505],[6.03763,50.851],[6.03947,50.85086],[6.04009,50.85112],[6.04122,50.85111],[6.04162,50.85131],[6.0421,50.85122],[6.04286,50.85181],[6.04388,50.85198],[6.04377,50.85222],[6.04396,50.85254],[6.04417,50.85247],[6.0445,50.85271],[6.04507,50.85239],[6.04538,50.85275],[6.04627,50.85298],[6.04627,50.85283],[6.04653,50.85286],[6.04669,50.85315],[6.04758,50.85357],[6.05008,50.85422],[6.05032,50.85459],[6.05015,50.85475],[6.05025,50.85501],[6.05077,50.85542],[6.05139,50.85537],[6.05224,50.85553],[6.05394,50.85689],[6.05505,50.85723],[6.05657,50.85709],[6.05715,50.85551],[6.05666,50.85496],[6.05657,50.85437],[6.05686,50.85443],[6.05708,50.85431],[6.05691,50.85298],[6.05722,50.85202],[6.05679,50.85188],[6.05695,50.85159],[6.05664,50.85155],[6.05651,50.85136],[6.0568,50.85124],[6.05671,50.85108],[6.05751,50.85104],[6.05736,50.85099],[6.05771,50.85053],[6.05755,50.85025],[6.05772,50.8488],[6.05868,50.84771],[6.05809,50.84685],[6.05832,50.84564],[6.0587,50.84512],[6.05874,50.84434],[6.05786,50.84307],[6.05819,50.84281],[6.05848,50.84156],[6.05933,50.84066],[6.0611,50.83984],[6.06244,50.83937],[6.06411,50.83938],[6.066,50.83874],[6.06642,50.83846],[6.06681,50.83733],[6.06726,50.83698],[6.06696,50.83688],[6.06713,50.83564],[6.06691,50.83559],[6.06687,50.83539],[6.06807,50.83473],[6.06807,50.83409],[6.06754,50.83306],[6.06716,50.83275],[6.06693,50.83293],[6.06631,50.83212],[6.06563,50.83172],[6.06555,50.83132],[6.06412,50.82933],[6.06437,50.8292],[6.06321,50.8284],[6.06403,50.82784],[6.06445,50.82786],[6.06369,50.82746],[6.06388,50.82731],[6.06292,50.82662],[6.06648,50.82438],[6.06712,50.82487],[6.06894,50.8238],[6.07021,50.82522],[6.07241,50.82365],[6.07262,50.8238],[6.07528,50.82203],[6.0718,50.81973],[6.07254,50.81899],[6.07214,50.81812],[6.07171,50.81766],[6.0713,50.81749],[6.07292,50.81663],[6.07481,50.81488],[6.07705,50.81351],[6.07251,50.81209],[6.0761,50.80717],[6.07627,50.80505],[6.07612,50.80362],[6.07828,50.79976],[6.07733,50.79909],[6.07641,50.79946],[6.0758,50.79832],[6.07596,50.79644],[6.07527,50.79392],[6.07236,50.7922],[6.07167,50.79131],[6.07072,50.79083],[6.07043,50.79009],[6.07141,50.78866],[6.07182,50.78893],[6.07272,50.78901],[6.07867,50.78559],[6.08023,50.78495],[6.08327,50.78408],[6.08268,50.78338],[6.08299,50.78324],[6.08282,50.78307],[6.08249,50.78323],[6.0823,50.78301],[6.08173,50.78306],[6.08144,50.78286],[6.08099,50.78295],[6.07969,50.78245],[6.07957,50.78269],[6.077,50.78169],[6.07671,50.78202],[6.07612,50.78205],[6.07602,50.78102],[6.07558,50.78112],[6.07494,50.77983],[6.07466,50.77989],[6.07435,50.77922],[6.07471,50.77914],[6.07434,50.77823]]]}},{"type":"Feature","properties":{"code":"52074","label":[6.02719,50.79415]},"geometry":{"type":"Polygon","coordinates":[[[6.06977,50.76431],[6.06909,50.76375],[6.06867,50.76395],[6.06841,50.76369],[6.06878,50.76351],[6.06856,50.76332],[6.06815,50.76339],[6.06642,50.76226],[6.06651,50.76195],[6.0652,50.76123],[6.06537,50.76111],[6.06522,50.76098],[6.06585,50.76085],[6.07148,50.76584],[6.07197,50.7658],[6.07172,50.76548],[6.07179,50.76499],[6.07154,50.76479],[6.07186,50.7638],[6.07218,50.76365],[6.07368,50.76192],[6.07488,50.7614],[6.07511,50.76105],[6.07425,50.76068],[6.07444,50.76046],[6.07535,50.76071],[6.07584,50.75994],[6.07616,50.76003],[6.07673,50.75945],[6.07712,50.7584],[6.07889,50.75818],[6.07887,50.75762],[6.07956,50.75757],[6.0732,50.75121],[6.07206,50.75066],[6.07138,50.75101],[6.071,50.75066],[6.07099,50.75022],[6.07035,50.74999],[6.07043,50.7497],[6.06804,50.74907],[6.06745,50.74934],[6.06384,50.74805],[6.06172,50.74664],[6.06204,50.74552],[6.06176,50.74306],[6.05929,50.74012],[6.06038,50.73883],[6.06281,50.73781],[6.06706,50.73693],[6.07089,50.73555],[6.07077,50.73408],[6.06823,50.73243],[6.06688,50.73021],[6.06281,50.72714],[6.06158,50.72355],[6.04982,50.726],[6.04671,50.72777],[6.04446,50.72843],[6.04391,50.72703],[6.04391,50.72628],[6.04358,50.7259],[6.04278,50.72362],[6.04277,50.72279],[6.04195,50.72094],[6.0414,50.71853],[6.0397,50.71828],[6.03675,50.72],[6.03697,50.72325],[6.03719,50.72402],[6.03778,50.7248],[6.03756,50.72488],[6.03606,50.72451],[6.03419,50.72534],[6.03454,50.72596],[6.03388,50.72642],[6.03343,50.72614],[6.03331,50.72623],[6.03324,50.72698],[6.03428,50.72807],[6.03438,50.72945],[6.03345,50.73016],[6.03315,50.73096],[6.03459,50.73157],[6.03492,50.73189],[6.035,50.73241],[6.03419,50.73345],[6.03723,50.73597],[6.03967,50.73747],[6.04072,50.74041],[6.03942,50.74237],[6.04044,50.7455],[6.02982,50.74979],[6.02893,50.74891],[6.02818,50.74778],[6.02755,50.74801],[6.02849,50.74968],[6.0291,50.75013],[6.02557,50.75171],[6.02176,50.75316],[6.02133,50.75351],[6.01967,50.75837],[6.01836,50.76336],[6.01919,50.76453],[6.02141,50.76623],[6.02274,50.76849],[6.02292,50.76843],[6.02313,50.76861],[6.02346,50.7693],[6.02643,50.77259],[6.02793,50.7735],[6.02766,50.77416],[6.02699,50.77424],[6.0269,50.77486],[6.02627,50.77524],[6.02612,50.77553],[6.02583,50.77545],[6.02479,50.77562],[6.02408,50.77604],[6.02365,50.77595],[6.02277,50.77613],[6.02221,50.77601],[6.0215,50.77636],[6.02115,50.77625],[6.02033,50.77649],[6.02022,50.77661],[6.02053,50.77685],[6.02021,50.77695],[6.02024,50.77709],[6.01904,50.77744],[6.01891,50.77769],[6.01765,50.778],[6.01738,50.77859],[6.01661,50.77858],[6.01555,50.77882],[6.01495,50.77908],[6.01443,50.77957],[6.01344,50.77947],[6.01329,50.77985],[6.01208,50.78022],[6.01086,50.78016],[6.0105,50.78027],[6.01037,50.78049],[6.00994,50.78048],[6.00957,50.78096],[6.00742,50.78157],[6.00696,50.7819],[6.00656,50.7819],[6.00661,50.7823],[6.00635,50.78234],[6.00551,50.78337],[6.0047,50.78351],[6.00454,50.78374],[6.0042,50.7837],[6.00401,50.78393],[6.00374,50.78386],[6.00315,50.78409],[6.00285,50.784],[6.00248,50.78421],[6.00213,50.78419],[6.00183,50.78465],[6.00128,50.78476],[6.00094,50.78516],[6.00022,50.78536],[6.00005,50.7856],[5.99979,50.78557],[5.99984,50.78579],[5.99897,50.78675],[5.99851,50.78698],[5.99746,50.78656],[5.99695,50.78703],[5.99584,50.78741],[5.99571,50.78846],[5.99588,50.79005],[5.99472,50.79044],[5.98827,50.79405],[5.98735,50.79409],[5.98673,50.79378],[5.98655,50.79388],[5.98586,50.79383],[5.98566,50.79392],[5.98574,50.79422],[5.9854,50.79442],[5.98521,50.79425],[5.98518,50.79458],[5.98499,50.79463],[5.98516,50.79476],[5.98494,50.79486],[5.98458,50.79479],[5.9843,50.79499],[5.98401,50.79476],[5.98312,50.79491],[5.98303,50.79512],[5.98266,50.79523],[5.98226,50.79512],[5.98207,50.79523],[5.98187,50.79503],[5.98163,50.79519],[5.98149,50.79501],[5.98068,50.79517],[5.98016,50.79511],[5.97995,50.79518],[5.98005,50.79531],[5.97977,50.79564],[5.97908,50.79601],[5.97915,50.7963],[5.97829,50.79648],[5.97779,50.7969],[5.97719,50.79669],[5.97644,50.79736],[5.97482,50.79806],[5.97541,50.79993],[5.97577,50.8024],[5.97682,50.80348],[5.9779,50.80506],[5.9787,50.80467],[5.9802,50.80579],[5.98026,50.80728],[5.98145,50.80851],[5.98132,50.80865],[5.98274,50.80925],[5.98438,50.81022],[5.98553,50.81062],[5.99128,50.80814],[5.99508,50.80589],[5.99884,50.80426],[6.00363,50.80143],[6.00764,50.80276],[6.01007,50.80398],[6.01321,50.80677],[6.01477,50.80854],[6.01652,50.80976],[6.02502,50.81411],[6.02938,50.81343],[6.03353,50.81088],[6.03899,50.8085],[6.04548,50.80745],[6.04726,50.8052],[6.04734,50.803],[6.04769,50.80185],[6.0493,50.80065],[6.04815,50.79969],[6.0483,50.79939],[6.0518,50.79847],[6.05218,50.79859],[6.05257,50.79851],[6.05372,50.79899],[6.05397,50.79875],[6.05622,50.79836],[6.05626,50.79798],[6.06047,50.79733],[6.06092,50.79765],[6.06126,50.79759],[6.06115,50.7974],[6.06138,50.79736],[6.06169,50.79756],[6.06189,50.79752],[6.06181,50.79735],[6.0624,50.79723],[6.06253,50.79699],[6.06158,50.79682],[6.062,50.79633],[6.06306,50.79641],[6.06333,50.7959],[6.06295,50.79585],[6.06319,50.79549],[6.06373,50.79563],[6.06414,50.79521],[6.06402,50.79512],[6.06546,50.79459],[6.06614,50.79399],[6.06632,50.79239],[6.06008,50.79163],[6.05756,50.79305],[6.0538,50.79238],[6.05337,50.79073],[6.05346,50.79005],[6.05425,50.7886],[6.05497,50.78778],[6.05825,50.78497],[6.06134,50.78357],[6.07144,50.77994],[6.07434,50.77823],[6.07283,50.77669],[6.07211,50.77637],[6.0716,50.77642],[6.07093,50.77571],[6.07205,50.77523],[6.07204,50.77494],[6.07123,50.7748],[6.07153,50.77404],[6.07183,50.77405],[6.072,50.77324],[6.07113,50.77295],[6.07107,50.7731],[6.07082,50.77307],[6.07079,50.77287],[6.06999,50.77264],[6.06941,50.77105],[6.07032,50.77046],[6.07014,50.77023],[6.07101,50.77011],[6.0704,50.76998],[6.06972,50.77008],[6.06945,50.76981],[6.06915,50.77001],[6.06938,50.7703],[6.06916,50.77032],[6.06899,50.77009],[6.06862,50.77016],[6.06848,50.76998],[6.06809,50.77009],[6.06734,50.76914],[6.06797,50.76895],[6.06767,50.76858],[6.0674,50.76873],[6.06728,50.76864],[6.0664,50.76917],[6.0656,50.76856],[6.06419,50.76785],[6.06472,50.76706],[6.06419,50.76678],[6.06347,50.76675],[6.06308,50.76648],[6.06146,50.76653],[6.06114,50.76557],[6.06342,50.76458],[6.06459,50.76497],[6.06727,50.76534],[6.06956,50.76702],[6.06999,50.7668],[6.06959,50.76633],[6.07033,50.76573],[6.06995,50.7653],[6.07019,50.76517],[6.0695,50.7647],[6.06799,50.76501],[6.06766,50.76484],[6.06827,50.7645],[6.06977,50.76431]]]}},{"type":"Feature","properties":{"code":"52076","label":[6.16517,50.71192]},"geometry":{"type":"Polygon","coordinates":[[[6.19459,50.75244],[6.19553,50.75152],[6.19381,50.75091],[6.1929,50.75035],[6.19226,50.75019],[6.19252,50.74939],[6.1934,50.74903],[6.19479,50.74779],[6.19446,50.74761],[6.19473,50.74679],[6.19426,50.74569],[6.19272,50.74426],[6.19486,50.74297],[6.19189,50.74095],[6.19333,50.74012],[6.19006,50.73731],[6.19303,50.73595],[6.19084,50.73517],[6.19348,50.73369],[6.19804,50.73152],[6.19727,50.72973],[6.19853,50.72825],[6.19869,50.72828],[6.20005,50.72638],[6.198,50.72583],[6.19935,50.72396],[6.20041,50.72444],[6.20079,50.72413],[6.20039,50.72392],[6.2009,50.72349],[6.20053,50.72338],[6.20115,50.72296],[6.20111,50.72258],[6.2026,50.72267],[6.20286,50.72236],[6.2038,50.72256],[6.20452,50.72125],[6.20435,50.72025],[6.20499,50.72005],[6.20354,50.71897],[6.20439,50.71882],[6.20245,50.71801],[6.20351,50.71678],[6.20883,50.7169],[6.20937,50.7162],[6.20889,50.71568],[6.20392,50.71534],[6.20323,50.71462],[6.20316,50.71414],[6.20442,50.71372],[6.20491,50.71333],[6.20428,50.71308],[6.20415,50.71281],[6.20501,50.71212],[6.20521,50.71222],[6.20557,50.71193],[6.2053,50.71175],[6.20607,50.711],[6.20475,50.71056],[6.20517,50.71007],[6.20677,50.70924],[6.20726,50.70834],[6.20775,50.70789],[6.20907,50.70677],[6.21093,50.70556],[6.21136,50.70497],[6.21096,50.70431],[6.2114,50.70388],[6.21223,50.70364],[6.2148,50.70107],[6.21811,50.69816],[6.21627,50.69713],[6.21478,50.69652],[6.21264,50.69799],[6.20952,50.69618],[6.20823,50.69208],[6.2002,50.6854],[6.19864,50.68443],[6.19678,50.6823],[6.19564,50.68032],[6.19308,50.68064],[6.19282,50.67975],[6.1941,50.67991],[6.19423,50.68038],[6.19556,50.68022],[6.19589,50.67975],[6.19571,50.67899],[6.19519,50.6783],[6.19452,50.67786],[6.19411,50.67601],[6.19428,50.67386],[6.19371,50.67207],[6.19291,50.67049],[6.19255,50.67014],[6.19134,50.66994],[6.19402,50.66363],[6.19242,50.66427],[6.18829,50.66464],[6.18834,50.66449],[6.1881,50.66449],[6.18802,50.66467],[6.18597,50.66437],[6.18221,50.66338],[6.17524,50.66265],[6.17139,50.66268],[6.16583,50.66214],[6.1649,50.66312],[6.1624,50.6683],[6.16152,50.6697],[6.16189,50.66967],[6.16184,50.66986],[6.16222,50.66981],[6.16218,50.66997],[6.16249,50.66993],[6.16245,50.67026],[6.16291,50.67038],[6.16294,50.67118],[6.16244,50.67124],[6.16254,50.67131],[6.16224,50.67146],[6.16213,50.67138],[6.162,50.67171],[6.16178,50.67167],[6.16175,50.67181],[6.16156,50.67173],[6.16146,50.67184],[6.16129,50.67168],[6.16082,50.6718],[6.16058,50.67172],[6.16037,50.67182],[6.16064,50.67191],[6.16036,50.67205],[6.1596,50.67206],[6.15932,50.67225],[6.15903,50.67208],[6.15889,50.67247],[6.15801,50.67256],[6.15816,50.67277],[6.15779,50.67273],[6.15772,50.67297],[6.15749,50.67296],[6.15749,50.6732],[6.15715,50.67314],[6.15708,50.67341],[6.15679,50.67355],[6.15702,50.67373],[6.15674,50.67415],[6.15631,50.6742],[6.15676,50.67479],[6.14886,50.67774],[6.14839,50.67821],[6.1482,50.67942],[6.14769,50.67993],[6.14683,50.68013],[6.14557,50.68141],[6.14411,50.68158],[6.14446,50.68279],[6.14222,50.68693],[6.14365,50.68877],[6.14276,50.68947],[6.14284,50.68964],[6.14205,50.69033],[6.14192,50.69027],[6.14141,50.69051],[6.14106,50.6904],[6.13941,50.69202],[6.13949,50.69214],[6.13919,50.69223],[6.13956,50.69344],[6.13944,50.69356],[6.13524,50.69493],[6.13339,50.69624],[6.13306,50.69895],[6.13198,50.69965],[6.12344,50.70697],[6.12328,50.70735],[6.12496,50.70955],[6.12483,50.71112],[6.12184,50.71433],[6.1216,50.71492],[6.1219,50.71533],[6.12086,50.71746],[6.12141,50.71753],[6.11951,50.71919],[6.11932,50.71959],[6.11892,50.71983],[6.11873,50.71966],[6.11824,50.72019],[6.11656,50.72093],[6.11593,50.72159],[6.1147,50.72228],[6.11073,50.72351],[6.11067,50.72289],[6.1,50.72336],[6.09811,50.72322],[6.09667,50.72214],[6.09485,50.72026],[6.09191,50.72247],[6.09165,50.72287],[6.08812,50.72143],[6.08427,50.72147],[6.07331,50.72094],[6.06158,50.72355],[6.06281,50.72714],[6.06688,50.73021],[6.06823,50.73243],[6.07077,50.73408],[6.07089,50.73555],[6.06706,50.73693],[6.06281,50.73781],[6.06038,50.73883],[6.05929,50.74012],[6.06176,50.74306],[6.06204,50.74552],[6.06172,50.74664],[6.06384,50.74805],[6.06745,50.74934],[6.06804,50.74907],[6.07043,50.7497],[6.07035,50.74999],[6.07099,50.75022],[6.071,50.75066],[6.07138,50.75101],[6.07264,50.7504],[6.07457,50.74996],[6.07572,50.74915],[6.0763,50.74922],[6.07704,50.74815],[6.07481,50.74697],[6.07494,50.74612],[6.07909,50.74428],[6.08243,50.7488],[6.08422,50.74992],[6.08448,50.7503],[6.08601,50.75009],[6.08616,50.7495],[6.08575,50.74933],[6.08599,50.74792],[6.08677,50.74711],[6.08718,50.74616],[6.08747,50.74601],[6.08777,50.74619],[6.08834,50.74623],[6.08783,50.74763],[6.08867,50.74784],[6.0874,50.74967],[6.08866,50.74968],[6.0903,50.75053],[6.09135,50.75075],[6.0925,50.75252],[6.09337,50.75244],[6.09331,50.75211],[6.09499,50.75233],[6.09509,50.75162],[6.09736,50.75184],[6.09966,50.75238],[6.09987,50.75221],[6.09964,50.7521],[6.0998,50.75173],[6.09935,50.75149],[6.10157,50.75012],[6.10353,50.74786],[6.10549,50.74715],[6.1085,50.7464],[6.10988,50.74491],[6.11154,50.74444],[6.11417,50.74487],[6.11565,50.7433],[6.11803,50.74404],[6.12146,50.74332],[6.12428,50.7422],[6.12514,50.7425],[6.11885,50.74566],[6.12551,50.75199],[6.12508,50.75351],[6.12623,50.75338],[6.12719,50.75442],[6.12594,50.75517],[6.12728,50.75602],[6.12836,50.75538],[6.12878,50.75586],[6.12989,50.75535],[6.13057,50.75585],[6.13142,50.75535],[6.13242,50.75708],[6.13258,50.75847],[6.13133,50.75972],[6.13084,50.76081],[6.13066,50.76091],[6.13049,50.76077],[6.13011,50.76102],[6.13107,50.76171],[6.13143,50.76162],[6.13087,50.7612],[6.13123,50.76087],[6.13156,50.76094],[6.13228,50.76053],[6.13201,50.76032],[6.13245,50.75992],[6.13285,50.75878],[6.13415,50.75907],[6.13569,50.75778],[6.1375,50.75664],[6.13605,50.75458],[6.13274,50.75081],[6.13321,50.75027],[6.13637,50.74873],[6.14074,50.74694],[6.14294,50.74625],[6.14308,50.74648],[6.14626,50.74636],[6.14681,50.74693],[6.14709,50.74685],[6.1467,50.74625],[6.14919,50.74547],[6.15136,50.74415],[6.15145,50.74434],[6.15183,50.74416],[6.15159,50.744],[6.15287,50.74312],[6.15434,50.74273],[6.15453,50.74245],[6.15481,50.74255],[6.15545,50.74235],[6.15529,50.74188],[6.15551,50.74177],[6.15571,50.74192],[6.15629,50.74157],[6.15657,50.74202],[6.15722,50.74192],[6.15722,50.74129],[6.15699,50.74098],[6.15792,50.74063],[6.16283,50.74059],[6.16608,50.74102],[6.169,50.7412],[6.17218,50.74053],[6.17731,50.74015],[6.17711,50.74271],[6.17936,50.74499],[6.18,50.74633],[6.18287,50.74804],[6.18811,50.74944],[6.19086,50.75188],[6.19298,50.75207],[6.19459,50.75244]]]}},{"type":"Feature","properties":{"code":"52078","label":[6.16438,50.75258]},"geometry":{"type":"Polygon","coordinates":[[[6.14216,50.77745],[6.14175,50.7773],[6.14349,50.77587],[6.14389,50.7753],[6.14404,50.77466],[6.14349,50.77356],[6.14215,50.77273],[6.1389,50.77113],[6.13722,50.77049],[6.13277,50.76992],[6.13091,50.76919],[6.12925,50.76823],[6.12815,50.76876],[6.12705,50.76798],[6.12807,50.76754],[6.12684,50.76641],[6.12509,50.76722],[6.12549,50.76758],[6.12512,50.76775],[6.12471,50.76739],[6.12398,50.76772],[6.12444,50.76815],[6.12385,50.76853],[6.12329,50.76806],[6.12197,50.76858],[6.12217,50.76887],[6.12288,50.76895],[6.1235,50.76945],[6.1222,50.77027],[6.12155,50.76982],[6.12031,50.7706],[6.11911,50.76995],[6.11866,50.77015],[6.11948,50.77078],[6.11896,50.77112],[6.11759,50.77047],[6.11714,50.77006],[6.11965,50.76885],[6.1199,50.76895],[6.12105,50.7682],[6.12206,50.76784],[6.12223,50.76707],[6.12666,50.76572],[6.12583,50.76441],[6.12537,50.76432],[6.12535,50.76406],[6.12025,50.76205],[6.11872,50.76129],[6.12152,50.7597],[6.12187,50.75914],[6.123,50.75871],[6.12278,50.75741],[6.1229,50.7564],[6.12376,50.75527],[6.12427,50.75498],[6.12488,50.75486],[6.12483,50.75456],[6.12492,50.75472],[6.12507,50.75464],[6.12517,50.75416],[6.12483,50.75411],[6.12508,50.75351],[6.12623,50.75338],[6.12719,50.75442],[6.12594,50.75517],[6.12728,50.75602],[6.12836,50.75538],[6.12878,50.75586],[6.12989,50.75535],[6.13057,50.75585],[6.13142,50.75535],[6.13242,50.75708],[6.13258,50.75847],[6.13133,50.75972],[6.13084,50.76081],[6.13066,50.76091],[6.13049,50.76077],[6.13011,50.76102],[6.13107,50.76171],[6.13143,50.76162],[6.13087,50.7612],[6.13123,50.76087],[6.13156,50.76094],[6.13228,50.76053],[6.13201,50.76032],[6.13245,50.75992],[6.13285,50.75878],[6.13415,50.75907],[6.13569,50.75778],[6.1375,50.75664],[6.13605,50.75458],[6.13274,50.75081],[6.13321,50.75027],[6.13637,50.74873],[6.14074,50.74694],[6.14294,50.74625],[6.14308,50.74648],[6.14626,50.74636],[6.14681,50.74693],[6.14709,50.74685],[6.1467,50.74625],[6.14919,50.74547],[6.15136,50.74415],[6.15145,50.74434],[6.15183,50.74416],[6.15159,50.744],[6.15287,50.74312],[6.15434,50.74273],[6.15453,50.74245],[6.15481,50.74255],[6.15545,50.74235],[6.15529,50.74188],[6.15551,50.74177],[6.15571,50.74192],[6.15629,50.74157],[6.15657,50.74202],[6.15722,50.74192],[6.15722,50.74129],[6.15699,50.74098],[6.15792,50.74063],[6.16283,50.74059],[6.16608,50.74102],[6.169,50.7412],[6.17218,50.74053],[6.17731,50.74015],[6.17711,50.74271],[6.17936,50.74499],[6.18,50.74633],[6.18287,50.74804],[6.18811,50.74944],[6.19086,50.75188],[6.19298,50.75207],[6.19459,50.75244],[6.19621,50.75309],[6.1957,50.75353],[6.19887,50.75486],[6.19882,50.75511],[6.20002,50.75593],[6.20036,50.75574],[6.20429,50.75944],[6.20436,50.75963],[6.20395,50.75968],[6.19988,50.76412],[6.19904,50.76453],[6.19561,50.76861],[6.19648,50.77223],[6.1946,50.77198],[6.19314,50.77154],[6.19202,50.76996],[6.1928,50.76935],[6.19112,50.7647],[6.18784,50.76125],[6.18634,50.7621],[6.18527,50.76486],[6.1824,50.76494],[6.17536,50.76417],[6.16932,50.76496],[6.16893,50.76726],[6.16389,50.76803],[6.16162,50.76883],[6.15798,50.76922],[6.15398,50.76918],[6.14798,50.77019],[6.1455,50.77025],[6.14095,50.77062],[6.1415,50.77099],[6.14259,50.77092],[6.1426,50.77106],[6.14177,50.77124],[6.14363,50.77291],[6.14338,50.77304],[6.14351,50.77313],[6.14376,50.773],[6.14427,50.77343],[6.14465,50.77418],[6.14463,50.77549],[6.14402,50.77615],[6.14297,50.7768],[6.14245,50.77738],[6.14216,50.77745]]]}},{"type":"Feature","properties":{"code":"52080","label":[6.16179,50.77897]},"geometry":{"type":"Polygon","coordinates":[[[6.14216,50.77745],[6.14172,50.77759],[6.14253,50.77798],[6.14273,50.77825],[6.14366,50.77802],[6.14374,50.77819],[6.14121,50.77897],[6.14102,50.77878],[6.14057,50.77891],[6.14082,50.7794],[6.1417,50.78023],[6.14218,50.78035],[6.14267,50.78101],[6.14364,50.78158],[6.14333,50.78203],[6.14401,50.78206],[6.14384,50.78221],[6.14434,50.78241],[6.14466,50.78232],[6.14471,50.78259],[6.14525,50.78293],[6.14567,50.78469],[6.14558,50.78597],[6.14462,50.78703],[6.14348,50.78751],[6.14165,50.78768],[6.14427,50.79085],[6.13923,50.79192],[6.1328,50.78988],[6.13141,50.78866],[6.12726,50.78902],[6.12588,50.78929],[6.125,50.78982],[6.12128,50.79349],[6.12165,50.79431],[6.12218,50.79485],[6.12213,50.79542],[6.12171,50.796],[6.12118,50.79633],[6.11797,50.79749],[6.11582,50.79862],[6.11596,50.80048],[6.11522,50.80145],[6.11454,50.80196],[6.11282,50.80198],[6.11114,50.80217],[6.11085,50.80198],[6.10955,50.80243],[6.11126,50.80475],[6.11597,50.8043],[6.11991,50.80379],[6.11993,50.80368],[6.12252,50.8036],[6.12404,50.80328],[6.12784,50.80298],[6.12927,50.80306],[6.12924,50.8029],[6.13097,50.8029],[6.13099,50.803],[6.13178,50.80295],[6.13258,50.80315],[6.13345,50.80309],[6.13416,50.80328],[6.13484,50.80319],[6.13619,50.80376],[6.13761,50.80413],[6.13914,50.80409],[6.14217,50.80433],[6.14782,50.80421],[6.14829,50.80407],[6.14821,50.80427],[6.15414,50.80388],[6.15746,50.80407],[6.16269,50.80481],[6.16717,50.80499],[6.16809,50.80531],[6.17005,50.8068],[6.17049,50.80761],[6.17064,50.80851],[6.1721,50.80846],[6.17193,50.80706],[6.17228,50.80629],[6.17316,50.80557],[6.17484,50.80491],[6.18302,50.80594],[6.19049,50.80714],[6.19072,50.79994],[6.19118,50.79629],[6.19085,50.79611],[6.18894,50.79625],[6.18706,50.79586],[6.18544,50.79488],[6.18331,50.79507],[6.18214,50.79469],[6.18026,50.79319],[6.1788,50.79252],[6.17659,50.79034],[6.17823,50.78882],[6.1793,50.78823],[6.17934,50.78789],[6.17453,50.78633],[6.17689,50.78348],[6.17713,50.78226],[6.17796,50.78066],[6.17871,50.78023],[6.17894,50.78028],[6.17999,50.77938],[6.1818,50.77839],[6.18251,50.77856],[6.18259,50.77821],[6.18206,50.77788],[6.18503,50.77697],[6.18748,50.7768],[6.18714,50.77644],[6.18776,50.7761],[6.18696,50.77575],[6.1902,50.77457],[6.18988,50.77403],[6.18851,50.77314],[6.18996,50.77226],[6.19095,50.77218],[6.19088,50.77191],[6.19163,50.77113],[6.19314,50.77154],[6.19202,50.76996],[6.1928,50.76935],[6.19112,50.7647],[6.18784,50.76125],[6.18634,50.7621],[6.18527,50.76486],[6.1824,50.76494],[6.17536,50.76417],[6.16932,50.76496],[6.16893,50.76726],[6.16389,50.76803],[6.16162,50.76883],[6.15798,50.76922],[6.15398,50.76918],[6.14798,50.77019],[6.1455,50.77025],[6.14095,50.77062],[6.1415,50.77099],[6.14259,50.77092],[6.1426,50.77106],[6.14177,50.77124],[6.14363,50.77291],[6.14338,50.77304],[6.14351,50.77313],[6.14376,50.773],[6.14427,50.77343],[6.14465,50.77418],[6.14463,50.77549],[6.14402,50.77615],[6.14297,50.7768],[6.14245,50.77738],[6.14216,50.77745]]]}}]}
